[
  {
    "OBJECT_NAME": "STARLINK-5639",
    "OBJECT_ID": "23013AL",
    "EPOCH": "2025-11-11T02:49:58.973952",
    "MEAN_MOTION": 15.02549749,
    "ECCENTRICITY": 0.0001038,
    "INCLINATION": 43.0036,
    "RA_OF_ASC_NODE": 237.566,
    "ARG_OF_PERICENTER": 267.6734,
    "MEAN_ANOMALY": 92.3989,
    "EPHEMERIS_TYPE": 0,
    "CLASSIFICATION_TYPE": "U",
    "NORAD_CAT_ID": 55365,
    "ELEMENT_SET_NO": 999,
    "REV_AT_EPOCH": 15372,
    "BSTAR": 0.0,
    "MEAN_MOTION_DOT": -2.409e-05,
    "MEAN_MOTION_DDOT": 0.0,
    "TLE_LINE1": "1 55365U 23013AL  25315.11804368 -.00002409  00000+0 -16326-3 0  9997",
    "TLE_LINE2": "2 55365  43.0036 237.5660 0001038 267.6734  92.3989 15.02549749153722",
    "COMMENT": "Grouped by shell and plane from TLE"
  },
  {
    "OBJECT_NAME": "STARLINK-5644",
    "OBJECT_ID": "23013AQ",
    "EPOCH": "2025-11-11T04:24:06.931584",
    "MEAN_MOTION": 15.02538369,
    "ECCENTRICITY": 0.0001197,
    "INCLINATION": 43.0047,
    "RA_OF_ASC_NODE": 237.1954,
    "ARG_OF_PERICENTER": 270.2874,
    "MEAN_ANOMALY": 89.7831,
    "EPHEMERIS_TYPE": 0,
    "CLASSIFICATION_TYPE": "U",
    "NORAD_CAT_ID": 55369,
    "ELEMENT_SET_NO": 999,
    "REV_AT_EPOCH": 15373,
    "BSTAR": 8.874000000000001e-05,
    "MEAN_MOTION_DOT": 9.95e-06,
    "MEAN_MOTION_DDOT": 0.0,
    "TLE_LINE1": "1 55369U 23013AQ  25315.18341356  .00000995  00000+0  88740-4 0  9997",
    "TLE_LINE2": "2 55369  43.0047 237.1954 0001197 270.2874  89.7831 15.02538369153734",
    "COMMENT": "Grouped by shell and plane from TLE"
  },
  {
    "OBJECT_NAME": "STARLINK-5027",
    "OBJECT_ID": "23013AR",
    "EPOCH": "2025-11-11T02:54:46.822464",
    "MEAN_MOTION": 15.02536408,
    "ECCENTRICITY": 0.0001708,
    "INCLINATION": 43.0062,
    "RA_OF_ASC_NODE": 237.5903,
    "ARG_OF_PERICENTER": 255.5005,
    "MEAN_ANOMALY": 104.5648,
    "EPHEMERIS_TYPE": 0,
    "CLASSIFICATION_TYPE": "U",
    "NORAD_CAT_ID": 55370,
    "ELEMENT_SET_NO": 999,
    "REV_AT_EPOCH": 15372,
    "BSTAR": 1.6452e-05,
    "MEAN_MOTION_DOT": 1.8e-07,
    "MEAN_MOTION_DDOT": 0.0,
    "TLE_LINE1": "1 55370U 23013AR  25315.12137526  .00000018  00000+0  16452-4 0  9992",
    "TLE_LINE2": "2 55370  43.0062 237.5903 0001708 255.5005 104.5648 15.02536408153724",
    "COMMENT": "Grouped by shell and plane from TLE"
  },
  {
    "OBJECT_NAME": "STARLINK-5590",
    "OBJECT_ID": "23013AS",
    "EPOCH": "2025-11-11T04:09:44.562816",
    "MEAN_MOTION": 15.02529251,
    "ECCENTRICITY": 7.02e-05,
    "INCLINATION": 43.0008,
    "RA_OF_ASC_NODE": 237.1181,
    "ARG_OF_PERICENTER": 306.4175,
    "MEAN_ANOMALY": 53.6603,
    "EPHEMERIS_TYPE": 0,
    "CLASSIFICATION_TYPE": "U",
    "NORAD_CAT_ID": 55371,
    "ELEMENT_SET_NO": 999,
    "REV_AT_EPOCH": 15465,
    "BSTAR": 0.0,
    "MEAN_MOTION_DOT": -1.102e-05,
    "MEAN_MOTION_DDOT": 0.0,
    "TLE_LINE1": "1 55371U 23013AS  25315.17343244 -.00001102  00000+0 -66542-4 0  9996",
    "TLE_LINE2": "2 55371  43.0008 237.1181 0000702 306.4175  53.6603 15.02529251154652",
    "COMMENT": "Grouped by shell and plane from TLE"
  },
  {
    "OBJECT_NAME": "STARLINK-5568",
    "OBJECT_ID": "23013AT",
    "EPOCH": "2025-11-11T04:19:19.117632",
    "MEAN_MOTION": 15.02540856,
    "ECCENTRICITY": 0.0001278,
    "INCLINATION": 43.0033,
    "RA_OF_ASC_NODE": 237.1717,
    "ARG_OF_PERICENTER": 274.4292,
    "MEAN_ANOMALY": 85.6404,
    "EPHEMERIS_TYPE": 0,
    "CLASSIFICATION_TYPE": "U",
    "NORAD_CAT_ID": 55372,
    "ELEMENT_SET_NO": 999,
    "REV_AT_EPOCH": 15373,
    "BSTAR": 8.9942e-05,
    "MEAN_MOTION_DOT": 1.012e-05,
    "MEAN_MOTION_DDOT": 0.0,
    "TLE_LINE1": "1 55372U 23013AT  25315.18008238  .00001012  00000+0  89942-4 0  9996",
    "TLE_LINE2": "2 55372  43.0033 237.1717 0001278 274.4292  85.6404 15.02540856153735",
    "COMMENT": "Grouped by shell and plane from TLE"
  },
  {
    "OBJECT_NAME": "STARLINK-5581",
    "OBJECT_ID": "23013AU",
    "EPOCH": "2025-11-11T04:49:41.166624",
    "MEAN_MOTION": 15.02538282,
    "ECCENTRICITY": 0.0001145,
    "INCLINATION": 43.0051,
    "RA_OF_ASC_NODE": 237.3215,
    "ARG_OF_PERICENTER": 268.4115,
    "MEAN_ANOMALY": 91.6596,
    "EPHEMERIS_TYPE": 0,
    "CLASSIFICATION_TYPE": "U",
    "NORAD_CAT_ID": 55373,
    "ELEMENT_SET_NO": 999,
    "REV_AT_EPOCH": 15373,
    "BSTAR": 3.9208e-05,
    "MEAN_MOTION_DOT": 3.26e-06,
    "MEAN_MOTION_DDOT": 0.0,
    "TLE_LINE1": "1 55373U 23013AU  25315.20117091  .00000326  00000+0  39208-4 0  9995",
    "TLE_LINE2": "2 55373  43.0051 237.3215 0001145 268.4115  91.6596 15.02538282153730",
    "COMMENT": "Grouped by shell and plane from TLE"
  },
  {
    "OBJECT_NAME": "STARLINK-5578",
    "OBJECT_ID": "23013AV",
    "EPOCH": "2025-11-11T04:14:30.945120",
    "MEAN_MOTION": 15.02541177,
    "ECCENTRICITY": 0.0001033,
    "INCLINATION": 43.0023,
    "RA_OF_ASC_NODE": 237.1482,
    "ARG_OF_PERICENTER": 272.7012,
    "MEAN_ANOMALY": 87.3712,
    "EPHEMERIS_TYPE": 0,
    "CLASSIFICATION_TYPE": "U",
    "NORAD_CAT_ID": 55374,
    "ELEMENT_SET_NO": 999,
    "REV_AT_EPOCH": 15373,
    "BSTAR": 0.00016729,
    "MEAN_MOTION_DOT": 2.057e-05,
    "MEAN_MOTION_DDOT": 0.0,
    "TLE_LINE1": "1 55374U 23013AV  25315.17674705  .00002057  00000+0  16729-3 0  9997",
    "TLE_LINE2": "2 55374  43.0023 237.1482 0001033 272.7012  87.3712 15.02541177153733",
    "COMMENT": "Grouped by shell and plane from TLE"
  },
  {
    "OBJECT_NAME": "STARLINK-5588",
    "OBJECT_ID": "23013AW",
    "EPOCH": "2025-11-11T04:00:08.412192",
    "MEAN_MOTION": 15.02548789,
    "ECCENTRICITY": 0.0001215,
    "INCLINATION": 43.0033,
    "RA_OF_ASC_NODE": 237.0709,
    "ARG_OF_PERICENTER": 271.2017,
    "MEAN_ANOMALY": 88.8686,
    "EPHEMERIS_TYPE": 0,
    "CLASSIFICATION_TYPE": "U",
    "NORAD_CAT_ID": 55375,
    "ELEMENT_SET_NO": 999,
    "REV_AT_EPOCH": 15373,
    "BSTAR": 3.1139e-05,
    "MEAN_MOTION_DOT": 2.17e-06,
    "MEAN_MOTION_DDOT": 0.0,
    "TLE_LINE1": "1 55375U 23013AW  25315.16676403  .00000217  00000+0  31139-4 0  9993",
    "TLE_LINE2": "2 55375  43.0033 237.0709 0001215 271.2017  88.8686 15.02548789153739",
    "COMMENT": "Grouped by shell and plane from TLE"
  },
  {
    "OBJECT_NAME": "STARLINK-5567",
    "OBJECT_ID": "23013AY",
    "EPOCH": "2025-11-11T05:16:41.270304",
    "MEAN_MOTION": 15.02536712,
    "ECCENTRICITY": 0.0001635,
    "INCLINATION": 43.0043,
    "RA_OF_ASC_NODE": 236.6097,
    "ARG_OF_PERICENTER": 271.0061,
    "MEAN_ANOMALY": 89.0594,
    "EPHEMERIS_TYPE": 0,
    "CLASSIFICATION_TYPE": "U",
    "NORAD_CAT_ID": 55377,
    "ELEMENT_SET_NO": 999,
    "REV_AT_EPOCH": 15374,
    "BSTAR": 4.8794e-05,
    "MEAN_MOTION_DOT": 4.55e-06,
    "MEAN_MOTION_DDOT": 0.0,
    "TLE_LINE1": "1 55377U 23013AY  25315.21992211  .00000455  00000+0  48794-4 0  9998",
    "TLE_LINE2": "2 55377  43.0043 236.6097 0001635 271.0061  89.0594 15.02536712153745",
    "COMMENT": "Grouped by shell and plane from TLE"
  },
  {
    "OBJECT_NAME": "STARLINK-5572",
    "OBJECT_ID": "23013AZ",
    "EPOCH": "2025-11-11T04:04:56.099136",
    "MEAN_MOTION": 15.0253784,
    "ECCENTRICITY": 0.000132,
    "INCLINATION": 43.0042,
    "RA_OF_ASC_NODE": 237.0966,
    "ARG_OF_PERICENTER": 269.459,
    "MEAN_ANOMALY": 90.6101,
    "EPHEMERIS_TYPE": 0,
    "CLASSIFICATION_TYPE": "U",
    "NORAD_CAT_ID": 55378,
    "ELEMENT_SET_NO": 999,
    "REV_AT_EPOCH": 15373,
    "BSTAR": 2.5744000000000003e-05,
    "MEAN_MOTION_DOT": 1.44e-06,
    "MEAN_MOTION_DDOT": 0.0,
    "TLE_LINE1": "1 55378U 23013AZ  25315.17009374  .00000144  00000+0  25744-4 0  9998",
    "TLE_LINE2": "2 55378  43.0042 237.0966 0001320 269.4590  90.6101 15.02537840153738",
    "COMMENT": "Grouped by shell and plane from TLE"
  },
  {
    "OBJECT_NAME": "STARLINK-5569",
    "OBJECT_ID": "23013BA",
    "EPOCH": "2025-11-11T03:50:33.344160",
    "MEAN_MOTION": 15.02540507,
    "ECCENTRICITY": 0.0001566,
    "INCLINATION": 43.0047,
    "RA_OF_ASC_NODE": 237.0191,
    "ARG_OF_PERICENTER": 268.8498,
    "MEAN_ANOMALY": 91.2165,
    "EPHEMERIS_TYPE": 0,
    "CLASSIFICATION_TYPE": "U",
    "NORAD_CAT_ID": 55379,
    "ELEMENT_SET_NO": 999,
    "REV_AT_EPOCH": 15373,
    "BSTAR": 0.0,
    "MEAN_MOTION_DOT": -9.33e-06,
    "MEAN_MOTION_DDOT": 0.0,
    "TLE_LINE1": "1 55379U 23013BA  25315.16010815 -.00000933  00000+0 -53978-4 0  9998",
    "TLE_LINE2": "2 55379  43.0047 237.0191 0001566 268.8498  91.2165 15.02540507153737",
    "COMMENT": "Grouped by shell and plane from TLE"
  },
  {
    "OBJECT_NAME": "STARLINK-5575",
    "OBJECT_ID": "23013BC",
    "EPOCH": "2025-11-11T05:21:28.539072",
    "MEAN_MOTION": 15.02544321,
    "ECCENTRICITY": 0.0001054,
    "INCLINATION": 43.004,
    "RA_OF_ASC_NODE": 236.6318,
    "ARG_OF_PERICENTER": 269.5692,
    "MEAN_ANOMALY": 90.5029,
    "EPHEMERIS_TYPE": 0,
    "CLASSIFICATION_TYPE": "U",
    "NORAD_CAT_ID": 55381,
    "ELEMENT_SET_NO": 999,
    "REV_AT_EPOCH": 15374,
    "BSTAR": 0.00019792000000000003,
    "MEAN_MOTION_DOT": 2.472e-05,
    "MEAN_MOTION_DDOT": 0.0,
    "TLE_LINE1": "1 55381U 23013BC  25315.22324698  .00002472  00000+0  19792-3 0  9998",
    "TLE_LINE2": "2 55381  43.0040 236.6318 0001054 269.5692  90.5029 15.02544321153745",
    "COMMENT": "Grouped by shell and plane from TLE"
  },
  {
    "OBJECT_NAME": "STARLINK-5576",
    "OBJECT_ID": "23013BD",
    "EPOCH": "2025-11-11T03:55:20.916192",
    "MEAN_MOTION": 15.02531178,
    "ECCENTRICITY": 0.000131,
    "INCLINATION": 43.0043,
    "RA_OF_ASC_NODE": 237.0473,
    "ARG_OF_PERICENTER": 262.3581,
    "MEAN_ANOMALY": 97.7112,
    "EPHEMERIS_TYPE": 0,
    "CLASSIFICATION_TYPE": "U",
    "NORAD_CAT_ID": 55382,
    "ELEMENT_SET_NO": 999,
    "REV_AT_EPOCH": 15373,
    "BSTAR": 5.7749e-05,
    "MEAN_MOTION_DOT": 5.76e-06,
    "MEAN_MOTION_DDOT": 0.0,
    "TLE_LINE1": "1 55382U 23013BD  25315.16343653  .00000576  00000+0  57749-4 0  9992",
    "TLE_LINE2": "2 55382  43.0043 237.0473 0001310 262.3581  97.7112 15.02531178153736",
    "COMMENT": "Grouped by shell and plane from TLE"
  }
]